SENTINEL-2B             
1 42063U 17013A   23242.45931361  .00000154  00000+0  75434-4 0  9998
2 42063  98.5649 315.9174 0001156  98.0101 262.1213 14.30816805338546
ZHUHAI-1 02 (CAS-4B)    
1 42759U 17034B   23242.34171143  .00007470  00000+0  36346-3 0  9991
2 42759  43.0147  63.0504 0011942 227.5650 132.4190 15.18736951342904
NUSAT-3 (MILANESAT)     
1 42760U 17034C   23242.38797231  .00009497  00000+0  43973-3 0  9994
2 42760  43.0111  53.7005 0014824 247.5715 112.3564 15.20182524343036
ZHUHAI-1 01 (CAS-4A)    
1 42761U 17034D   23242.42339750  .00008987  00000+0  43460-3 0  9992
2 42761  43.0138  61.1169 0012640 228.2014 131.7755 15.18750495342921
CARTOSAT-2E             
1 42767U 17036C   23242.42658801  .00005917  00000+0  28409-3 0  9997
2 42767  97.3981 300.5516 0005889 293.6091  66.4525 15.19213648343014
FORMOSAT-5              
1 42920U 17049A   23241.84729965  .00000227  00000+0  68814-4 0  9991
2 42920  98.3190 318.4151 0010078 352.2601   7.8437 14.50874253318434
SENTINEL-5P             
1 42969U 17064A   23242.38031018  .00000077  00000+0  57344-4 0  9995
2 42969  98.7056 181.0724 0001359  89.1315 271.0017 14.19585438304592
SKYSAT-C11              
1 42987U 17068A   23242.31878213  .00015236  00000+0  39238-3 0  9992
2 42987  97.3302   4.8679 0004827  35.6965 324.4603 15.39302787325877
SKYSAT-C10              
1 42988U 17068B   23241.80092371  .00015855  00000+0  40503-3 0  9993
2 42988  97.3363   4.9806 0002194  41.3537 318.7874 15.39551417325829
SKYSAT-C9               
1 42989U 17068C   23242.34058732  .00015838  00000+0  40780-3 0  9995
2 42989  97.3295   4.3474 0008850 181.3170 178.8054 15.39271140326101
SKYSAT-C8               
1 42990U 17068D   23242.31136669  .00015550  00000+0  40072-3 0  9995
2 42990  97.3385   5.8233 0002197 320.1654  39.9430 15.39286680325918
SKYSAT-C7               
1 42991U 17068E   23241.77919728  .00016023  00000+0  41200-3 0  9990
2 42991  97.3379   5.4975 0003099  20.6972 339.4399 15.39346292325848
SKYSAT-C6               
1 42992U 17068F   23242.35263056  .00015556  00000+0  39920-3 0  9998
2 42992  97.3413   6.6029 0004088  27.6861 332.4601 15.39411062325942
CARTOSAT-2F             
1 43111U 18004A   23242.39395106  .00005324  00000+0  25540-3 0  9994
2 43111  97.4765 300.7700 0001590 304.0548  56.0536 15.19310088312193
NUSAT-4 (ADA)           
1 43195U 18015D   23242.41615194  .00053369  00000+0  73521-3 0  9997
2 43195  97.5802  42.9226 0008331 268.3698  91.6602 15.57037247310792
NUSAT-5 (MARYAM)        
1 43204U 18015K   23242.38186900  .00059928  00000+0  77160-3 0  9992
2 43204  97.5801  44.0416 0008197 269.0571  90.9745 15.58822141310453
GAOFEN 1-02             
1 43259U 18031A   23242.37531249  .00001024  00000+0  15384-3 0  9993
2 43259  97.8583 313.3603 0004344  42.3650 317.7895 14.76579061291917
GAOFEN 1-03             
1 43260U 18031B   23242.42140540  .00001066  00000+0  15985-3 0  9994
2 43260  97.8577 313.3458 0006231 105.3848 254.8050 14.76582016291914
GAOFEN 1-04             
1 43262U 18031D   23242.39685780  .00001041  00000+0  15630-3 0  9992
2 43262  97.8585 313.3981 0004342  68.4585 291.7087 14.76576923291903
SENTINEL-3B             
1 43437U 18039A   23242.18670771  .00000146  00000+0  78245-4 0  9992
2 43437  98.6224 308.2398 0001297  84.0325 276.1003 14.26742690278397
GAOFEN 5-01             
1 43461U 18043A   23241.81710215  .00000557  00000+0  12996-3 0  9997
2 43461  98.3140 186.1965 0002580  43.6570 316.4833 14.58547270282543
GAOFEN 6                
1 43484U 18048A   23242.36588161  .00000926  00000+0  13997-3 0  9993
2 43484  97.8948 318.8348 0008556 220.5289 139.5284 14.76553650282609
GAOFEN 11-1             
1 43585U 18063A   23242.38100982  .00007624  00000+0  31974-3 0  9992
2 43585  97.2740 311.4846 0010763  69.1438 291.0951 15.23715295283225
ICESAT-2                
1 43613U 18070A   23242.02997756  .00010829  00000+0  39273-3 0  9997
2 43613  91.9963  16.1237 0007749  82.1606 278.0523 15.28285988276352
HYSIS                   
1 43719U 18096A   23242.40540251  .00001421  00000+0  20074-3 0  9995
2 43719  97.9070 307.1758 0002008 168.5154 191.6104 14.78696675256429
KAZSTSAT                
1 43783U 18099AB  23242.11794894  .00001598  00000+0  15041-3 0  9994
2 43783  97.5742 298.6900 0006285 235.2014 124.8616 14.95204380258327
SAUDISAT 5A             
1 43831U 18102A   23242.39813583  .00003957  00000+0  23110-3 0  9997
2 43831  97.4498 310.1415 0014781 107.6483 252.6363 15.12390326260442
SAUDISAT 5B             
1 43833U 18102C   23242.41611314  .00004231  00000+0  24330-3 0  9991
2 43833  97.4532 311.5656 0015529 112.1667 248.1214 15.12906842260510
GAOFEN 10R              
1 44622U 19066A   23242.39303866  .00001659  00000+0  21715-3 0  9990
2 44622  97.9305 181.1094 0002554  26.1406 333.9935 14.81722899210988
CARTOSAT-3              
1 44804U 19081A   23242.46188315  .00004316  00000+0  20741-3 0  9998
2 44804  97.3402 298.3769 0012730 119.7922 240.4581 15.19269840208295
GAOFEN 12-1             
1 44819U 19082A   23242.38583913  .00000562  00000+0  79603-4 0  9990
2 44819  97.8398 258.2566 0001498  98.7813 261.3569 14.80766613202888
CSG-1                   
1 44873U 19092A   23242.34708831  .00000680  00000+0  91924-4 0  9996
2 44873  97.8882  64.7512 0001407  87.9820 272.1554 14.82150125200110
NUSAT-7 (SOPHIE)        
1 45017U 20003B   23242.44907234  .00067764  00000+0  76158-3 0  9997
2 45017  97.1507 304.2132 0007586 186.6907 173.4251 15.62363258202981
NUSAT-8 (MARIE)         
1 45018U 20003C   23242.37350551  .00232954  00000+0  98030-3 0  9992
2 45018  97.1599 311.0016 0006650 200.0550 160.0460 15.84863507203303
NUSAT-6 (HYPATIA)       
1 46272U 20061A   23242.16529045  .00018301  00000+0  49710-3 0  9991
2 46272  97.2761 310.5537 0003701 318.8992  41.1974 15.37623150166305
NEMO-HD                 
1 46277U 20061F   23242.36615616  .00004544  00000+0  20440-3 0  9991
2 46277  97.3412 307.1658 0003081  89.5448 270.6141 15.21592024165503
NUSAT-12 (DOROTHY)      
1 46827U 20079A   23242.36416222  .00240595  00000+0  96278-3 0  9993
2 46827  97.1316 315.7437 0004253 188.1238 171.9965 15.85915886158144
NUSAT-9 (ALICE)         
1 46828U 20079B   23242.37256629  .00207818  00000+0  10038-2 0  9998
2 46828  97.1208 315.0811 0003420 200.3264 159.7870 15.82001871158219
NUSAT-11 (CORA)         
1 46829U 20079C   23242.39713275  .00184849  00000+0  97015-3 0  9995
2 46829  97.1295 315.7153 0003866 174.8492 185.2817 15.80243846158206
NUSAT-15 (KATHERINE)    
1 46830U 20079D   23242.38190178  .00359437  51783-4  10193-2 0  9994
2 46830  97.1402 318.2127 0005127 225.1030 134.9830 15.93349191158241
NUSAT-14 (HEDY)         
1 46831U 20079E   23242.43253365  .00973792  55258-3  10910-2 0  9992
2 46831  97.1344 319.1217 0008407 248.2226 111.8163 16.09464647158340
NUSAT-10 (CAROLINE)     
1 46832U 20079F   23242.40728406  .00142452  00000+0  87957-3 0  9991
2 46832  97.1430 316.0089 0003946 169.3015 190.8336 15.76712482158123
NUSAT-13 (EMMY)         
1 46833U 20079G   23242.40885581  .00131806  00000+0  83111-3 0  9999
2 46833  97.1417 315.7909 0004562 172.3207 187.8130 15.76258946158115
NUSAT-17 (MARY)         
1 46835U 20079J   23242.37466611  .00165268  00000+0  93804-3 0  9995
2 46835  97.1421 315.6749 0004639 178.8097 181.3182 15.78550408158101
NUSAT-18 (VERA)         
1 46836U 20079K   23242.42578494  .00222846  00000+0  95275-3 0  9995
2 46836  97.1396 317.0515 0005280 194.1478 165.9646 15.84564960158194
NUSAT-16 (LISE)         
1 46840U 20079P   23242.41262667  .00300185  35192-4  98235-3 0  9998
2 46840  97.1435 317.9654 0005116 216.7161 143.3763 15.90568101158226
SENTINEL-6              
1 46984U 20086A   23241.91534600 -.00000031  00000+0  13042-3 0  9994
2 46984  66.0402  98.3230 0007858 268.4835  91.5280 12.80929357129395
GAOFEN 12-2             
1 48079U 21026A   23242.42800010  .00000614  00000+0  86599-4 0  9998
2 48079  97.9284 231.9362 0001822  81.3748 278.7671 14.80685815130579
PLEIADES NEO 3          
1 48268U 21034A   23242.41938234  .00001529  00000+0  20087-3 0  9991
2 48268  97.8943 315.8485 0001193 105.8397 254.2947 14.81668724126358
NUSAT-19 (ROSALIND)     
1 48905U 21059AC  23242.40117937  .00016268  00000+0  54495-3 0  9990
2 48905  97.5613  19.2263 0007355 339.9916  20.1035 15.30991840120927
NUSAT-22 (SOFYA)        
1 48919U 21059AS  23242.38357725  .00064820  00000+0  80687-3 0  9992
2 48919  97.3991  24.0723 0008793 244.6043 115.4304 15.59691688122178
NUSAT-21 (ELISA)        
1 48920U 21059AT  23242.39150015  .00124627  00000+0  90134-3 0  9998
2 48920  97.3907  26.7079 0008195 246.2379 113.8026 15.73061009122409
NUSAT-20 (GRACE)        
1 48921U 21059AU  23242.36971046  .00092000  00000+0  86100-3 0  9998
2 48921  97.4061  26.3401 0009182 263.4213  96.6002 15.66906059122296
PLEIADES NEO 4          
1 49070U 21073E   23242.45313554  .00001119  00000+0  14878-3 0  9998
2 49070  97.8953 315.8766 0001091 101.4736 258.6599 14.81674909110074
LANDSAT 9               
1 49260U 21088A   23242.18833584  .00000462  00000+0  11264-3 0  9991
2 49260  98.2247 311.1773 0001458  97.8403 262.2961 14.57103626102160
CSG-2                   
1 51444U 22008A   23242.44835574  .00000494  00000+0  68605-4 0  9998
2 51444  97.8881  64.8508 0001499  88.0687 272.0698 14.82159793 85244
INS-2TD                 
1 51658U 22013C   23241.92580762  .00016745  00000+0  67270-3 0  9991
2 51658  97.5458 254.5889 0011416 108.6676 251.5801 15.24961033 85215
GAOFEN 12-3             
1 52912U 22069A   23242.41206603  .00001630  00000+0  21979-3 0  9993
2 52912  97.9412 131.7826 0001511  68.4797 291.6576 14.80506216 63435
SWOT                    
1 54754U 22173A   23241.90679968  .00000001  00000+0  21847-5 0  9993
2 54754  77.6130 335.2821 0000247  94.6648 265.4532 14.00168096 36084
